PROBA-1                 
1 26958U 01049B   22258.49928421  .00002466  00000+0  21091-3 0  9995
2 26958  97.8313 218.4070 0072399  44.8698 315.8344 14.96556304137871
BIRD 2                  
1 26959U 01049C   22258.51913748  .00018268  00000+0  37142-3 0  9996
2 26959  97.7623 356.5195 0007126  56.2625 303.9302 15.46340932467096
CUTE-1 (CO-55)          
1 27844U 03031E   22258.53181967  .00000253  00000+0  13291-3 0  9999
2 27844  98.6811 264.8662 0009439 194.8042 165.2860 14.22493033996673
CUBESAT XI-IV (CO-57)   
1 27848U 03031J   22258.52300503  .00000206  00000+0  11274-3 0  9998
2 27848  98.6854 265.3578 0009090 209.8629 150.2031 14.22044668996486
GENESIS 1               
1 29252U 06029A   22258.21209821  .00005352  00000+0  23784-3 0  9992
2 29252  64.5210 136.2037 0055403 248.7711 110.7491 15.21288358892622
FALCONSAT-3             
1 30776U 07006E   22258.51036288  .00058423  00000+0  69577-3 0  9996
2 30776  35.4307  27.6530 0001186 110.6097 249.4764 15.59968594863622
GENESIS 2               
1 31789U 07028A   22258.15271835  .00006860  00000+0  31191-3 0  9993
2 31789  64.4966 179.8069 0055541 300.4805  59.0841 15.20188754839531
APRIZESAT 4             
1 35684U 09041D   22258.51102510  .00000690  00000+0  97808-4 0  9994
2 35684  98.3104 275.2413 0047939  63.6744 296.9379 14.79727447708382
APRIZESAT 3             
1 35686U 09041F   22258.20572310  .00001232  00000+0  13481-3 0  9998
2 35686  98.1048 346.8728 0070687 252.7321 106.6151 14.88046619711958
PROBA-2                 
1 36037U 09059B   22258.48639275  .00000171  00000+0  51942-4 0  9998
2 36037  98.2253  83.3946 0013181 186.2815 173.8219 14.53290905682339
APRIZESAT 5             
1 37792U 11044E   22258.54260315  .00000686  00000+0  10544-3 0  9999
2 37792  98.3104 136.5646 0058997  77.3769 283.4028 14.75837416596286
APRIZESAT 6             
1 37793U 11044F   22258.53264066  .00000547  00000+0  92527-4 0  9994
2 37793  98.3909 113.6227 0047507 128.9810 290.9997 14.72852196595125
TET-1                   
1 38710U 12039D   22258.22687217  .00132074  00000+0  66536-3 0  9993
2 38710  97.5026 346.1931 0001126 148.4955 211.6381 15.81286930571540
PROBA-V                 
1 39159U 13021A   22258.50581038  .00000031  00000+0  31748-4 0  9993
2 39159  98.3511 289.8359 0004235 171.7272 188.3978 14.23047841486131
STPSAT-3                
1 39380U 13064A   22258.31360686  .00050783  00000+0  92402-3 0  9991
2 39380  40.4970 215.6237 0009231 243.6848 116.3023 15.48597781493215
APRIZESAT 7             
1 39416U 13066A   22258.47034920  .00001131  00000+0  13798-3 0  9993
2 39416  97.5816 234.1417 0042162  62.5418 298.0074 14.84568448477396
APRIZESAT 8             
1 39425U 13066K   22258.47306450  .00000867  00000+0  11385-3 0  9998
2 39425  97.6365 225.7012 0052982 105.3061 255.4017 14.81707491476296
BUGSAT-1 (TITA)         
1 40014U 14033E   22258.58023443  .00002553  00000+0  22514-3 0  9999
2 40014  98.1457 260.6953 0032337  98.3324 262.1555 14.97005020449622
SAUDISAT 4              
1 40016U 14033G   22258.48808890  .00000560  00000+0  87793-4 0  9994
2 40016  97.6403  88.3844 0047307 207.8297 152.0382 14.75620750443675
APRIZESAT 9             
1 40018U 14033J   22258.43969721  .00000541  00000+0  94366-4 0  9995
2 40018  97.7246  64.2384 0069635 284.9452  74.4053 14.70326026441878
APRIZESAT 10            
1 40019U 14033K   22258.50715466  .00000337  00000+0  65133-4 0  9992
2 40019  97.7803  54.1441 0083116 329.8549  29.7886 14.67364287441005
TDS 1                   
1 40076U 14037H   22258.55043458  .00002610  00000+0  30593-3 0  9996
2 40076  98.3761 136.2419 0007626 131.5737 228.6131 14.85930727443085
TIANTUO 2               
1 40144U 14053B   22258.60187978  .00006671  00000+0  17606-3 0  9993
2 40144  97.1891 336.7762 0009396 227.9275 239.9827 15.38749425448953
TECHNOSAT               
1 42829U 17042E   22258.55835862  .00001373  00000+0  14013-3 0  9995
2 42829  97.4117 107.4074 0015450  68.2230 292.0632 14.92043679281522
FLYING LAPTOP           
1 42831U 17042G   22258.60793592  .00001563  00000+0  15935-3 0  9992
2 42831  97.4132 107.7881 0015241  68.9272 291.3600 14.91925604281536
HAWK-A                  
1 43765U 18099H   22258.50026232  .00001504  00000+0  13438-3 0  9992
2 43765  97.6107 324.2095 0014090 333.6842  26.3663 14.97312856206612
HAWK-B                  
1 43794U 18099AN  22258.16650726  .00001711  00000+0  15217-3 0  9994
2 43794  97.6113 323.8839 0014155 335.3566  24.6978 14.97313917206558
HAWK-C                  
1 43799U 18099AT  22258.50046271  .00001574  00000+0  14037-3 0  9997
2 43799  97.6105 324.1171 0014035 333.5786  26.4719 14.97313522207352
SALSAT                  
1 46495U 20068K   22258.40565479  .00003458  00000+0  24864-3 0  9999
2 46495  97.7331 199.7727 0015808 338.0809  21.9739 15.04837581107714
